{
  "type": "FeatureCollection",
  "features": [
    {
      "type": "Feature",
      "properties": {
        "norad_id": 42988,
        "name": "SKYSAT-C10",
        "group": "resource",
        "lat": -77.22787765293313,
        "lon": 144.11099252711952,
        "alt_km": 480.7695924501513,
        "timestamp": "2025-12-04T03:47:54.211293+00:00",
        "meta_object_name": "SKYSAT-C10",
        "meta_object_id": "2017-068B",
        "meta_epoch": "2025-12-02T22:21:40.538016",
        "meta_mean_motion": 15.31972305,
        "meta_eccentricity": 0.00054851,
        "meta_inclination": 97.4254,
        "meta_ra_of_asc_node": 107.758,
        "meta_arg_of_pericenter": 121.5944,
        "meta_mean_anomaly": 238.5834,
        "meta_ephemeris_type": 0,
        "meta_classification_type": "U",
        "meta_norad_cat_id": 42988,
        "meta_element_set_no": 999,
        "meta_rev_at_epoch": 45229,
        "meta_bstar": 0.00048523918,
        "meta_mean_motion_dot": 0.0001492,
        "meta_mean_motion_ddot": 0,
        "tle_line1": "1 42988U 17068B   25336.93171919  .00014920  00000+0  48524-3 0  9993",
        "tle_line2": "2 42988  97.4254 107.7580 0005485 121.5944 238.5834 15.31972305452291"
      },
      "geometry": {
        "type": "Point",
        "coordinates": [
          144.11099252711952,
          -77.22787765293313
        ]
      }
    },
    {
      "type": "Feature",
      "properties": {
        "norad_id": 42989,
        "name": "SKYSAT-C9",
        "group": "resource",
        "lat": 5.415448209722044,
        "lon": 107.63922300846039,
        "alt_km": 463.70622201884635,
        "timestamp": "2025-12-04T03:47:54.211303+00:00",
        "meta_object_name": "SKYSAT-C9",
        "meta_object_id": "2017-068C",
        "meta_epoch": "2025-12-03T15:15:50.385312",
        "meta_mean_motion": 15.35676421,
        "meta_eccentricity": 0.0010662,
        "meta_inclination": 97.4182,
        "meta_ra_of_asc_node": 107.821,
        "meta_arg_of_pericenter": 117.3591,
        "meta_mean_anomaly": 242.8739,
        "meta_ephemeris_type": 0,
        "meta_classification_type": "U",
        "meta_norad_cat_id": 42989,
        "meta_element_set_no": 999,
        "meta_rev_at_epoch": 45268,
        "meta_bstar": 0.00055332,
        "meta_mean_motion_dot": 0.00019174,
        "meta_mean_motion_ddot": 0,
        "tle_line1": "1 42989U 17068C   25337.63599983  .00019174  00000+0  55332-3 0  9998",
        "tle_line2": "2 42989  97.4182 107.8210 0010662 117.3591 242.8739 15.35676421452686"
      },
      "geometry": {
        "type": "Point",
        "coordinates": [
          107.63922300846039,
          5.415448209722044
        ]
      }
    },
    {
      "type": "Feature",
      "properties": {
        "norad_id": 42990,
        "name": "SKYSAT-C8",
        "group": "resource",
        "lat": 70.88537871949734,
        "lon": 86.01016263942644,
        "alt_km": 460.32366088212984,
        "timestamp": "2025-12-04T03:47:54.211313+00:00",
        "meta_object_name": "SKYSAT-C8",
        "meta_object_id": "2017-068D",
        "meta_epoch": "2025-12-03T19:38:57.151392",
        "meta_mean_motion": 15.32607067,
        "meta_eccentricity": 0.0002118,
        "meta_inclination": 97.4277,
        "meta_ra_of_asc_node": 107.7826,
        "meta_arg_of_pericenter": 19.5333,
        "meta_mean_anomaly": 340.5989,
        "meta_ephemeris_type": 0,
        "meta_classification_type": "U",
        "meta_norad_cat_id": 42990,
        "meta_element_set_no": 999,
        "meta_rev_at_epoch": 45234,
        "meta_bstar": 0.00052846,
        "meta_mean_motion_dot": 0.00016579,
        "meta_mean_motion_ddot": 0,
        "tle_line1": "1 42990U 17068D   25337.81871703  .00016579  00000+0  52846-3 0  9996",
        "tle_line2": "2 42990  97.4277 107.7826 0002118  19.5333 340.5989 15.32607067452342"
      },
      "geometry": {
        "type": "Point",
        "coordinates": [
          86.01016263942644,
          70.88537871949734
        ]
      }
    },
    {
      "type": "Feature",
      "properties": {
        "norad_id": 42991,
        "name": "SKYSAT-C7",
        "group": "resource",
        "lat": -53.41869281269701,
        "lon": 119.29663833171811,
        "alt_km": 480.8010389658766,
        "timestamp": "2025-12-04T03:47:54.211324+00:00",
        "meta_object_name": "SKYSAT-C7",
        "meta_object_id": "2017-068E",
        "meta_epoch": "2025-12-03T15:29:36.959424",
        "meta_mean_motion": 15.32008613,
        "meta_eccentricity": 0.0007873,
        "meta_inclination": 97.4283,
        "meta_ra_of_asc_node": 108.6573,
        "meta_arg_of_pericenter": 85.486,
        "meta_mean_anomaly": 274.7281,
        "meta_ephemeris_type": 0,
        "meta_classification_type": "U",
        "meta_norad_cat_id": 42991,
        "meta_element_set_no": 999,
        "meta_rev_at_epoch": 45238,
        "meta_bstar": 0.00052201,
        "meta_mean_motion_dot": 0.00016085,
        "meta_mean_motion_ddot": 0,
        "tle_line1": "1 42991U 17068E   25337.64556666  .00016085  00000+0  52201-3 0  9993",
        "tle_line2": "2 42991  97.4283 108.6573 0007873  85.4860 274.7281 15.32008613452388"
      },
      "geometry": {
        "type": "Point",
        "coordinates": [
          119.29663833171811,
          -53.41869281269701
        ]
      }
    },
    {
      "type": "Feature",
      "properties": {
        "norad_id": 42992,
        "name": "SKYSAT-C6",
        "group": "resource",
        "lat": 82.42903204342954,
        "lon": 30.486063917130537,
        "alt_km": 461.40544655194753,
        "timestamp": "2025-12-04T03:47:54.211334+00:00",
        "meta_object_name": "SKYSAT-C6",
        "meta_object_id": "2017-068F",
        "meta_epoch": "2025-12-03T08:35:31.689888",
        "meta_mean_motion": 15.31177883,
        "meta_eccentricity": 0.0005146,
        "meta_inclination": 97.4315,
        "meta_ra_of_asc_node": 108.8149,
        "meta_arg_of_pericenter": 109.2046,
        "meta_mean_anomaly": 250.9752,
        "meta_ephemeris_type": 0,
        "meta_classification_type": "U",
        "meta_norad_cat_id": 42992,
        "meta_element_set_no": 999,
        "meta_rev_at_epoch": 45232,
        "meta_bstar": 0.00046777,
        "meta_mean_motion_dot": 0.00014026,
        "meta_mean_motion_ddot": 0,
        "tle_line1": "1 42992U 17068F   25337.35800567  .00014026  00000+0  46777-3 0  9998",
        "tle_line2": "2 42992  97.4315 108.8149 0005146 109.2046 250.9752 15.31177883452326"
      },
      "geometry": {
        "type": "Point",
        "coordinates": [
          30.486063917130537,
          82.42903204342954
        ]
      }
    },
    {
      "type": "Feature",
      "properties": {
        "norad_id": 43111,
        "name": "CARTOSAT-2F",
        "group": "resource",
        "lat": -29.269917774970768,
        "lon": -148.2615334861956,
        "alt_km": 513.0395570607279,
        "timestamp": "2025-12-04T03:47:54.211344+00:00",
        "meta_object_name": "CARTOSAT-2F",
        "meta_object_id": "2018-004A",
        "meta_epoch": "2025-12-03T22:08:15.239904",
        "meta_mean_motion": 15.19361073,
        "meta_eccentricity": 0.0001125,
        "meta_inclination": 97.433,
        "meta_ra_of_asc_node": 35.7026,
        "meta_arg_of_pericenter": 187.1053,
        "meta_mean_anomaly": 173.0166,
        "meta_ephemeris_type": 0,
        "meta_classification_type": "U",
        "meta_norad_cat_id": 43111,
        "meta_element_set_no": 999,
        "meta_rev_at_epoch": 43768,
        "meta_bstar": 8.4889e-05,
        "meta_mean_motion_dot": 1.727e-05,
        "meta_mean_motion_ddot": 0,
        "tle_line1": "1 43111U 18004A   25337.92239861  .00001727  00000+0  84889-4 0  9990",
        "tle_line2": "2 43111  97.4330  35.7026 0001125 187.1053 173.0166 15.19361073437683"
      },
      "geometry": {
        "type": "Point",
        "coordinates": [
          -148.2615334861956,
          -29.269917774970768
        ]
      }
    },
    {
      "type": "Feature",
      "properties": {
        "norad_id": 43259,
        "name": "GAOFEN-1 02",
        "group": "resource",
        "lat": -33.97258938837262,
        "lon": -149.55043372464664,
        "alt_km": 646.0639903353313,
        "timestamp": "2025-12-04T03:47:54.211355+00:00",
        "meta_object_name": "GAOFEN-1 02",
        "meta_object_id": "2018-031A",
        "meta_epoch": "2025-12-03T20:19:29.271648",
        "meta_mean_motion": 14.7644985,
        "meta_eccentricity": 0.0001304,
        "meta_inclination": 98.0819,
        "meta_ra_of_asc_node": 35.6322,
        "meta_arg_of_pericenter": 255.3503,
        "meta_mean_anomaly": 104.7561,
        "meta_ephemeris_type": 0,
        "meta_classification_type": "U",
        "meta_norad_cat_id": 43259,
        "meta_element_set_no": 999,
        "meta_rev_at_epoch": 41387,
        "meta_bstar": 0.00022767,
        "meta_mean_motion_dot": 1.532e-05,
        "meta_mean_motion_ddot": 0,
        "tle_line1": "1 43259U 18031A   25337.84686657  .00001532  00000+0  22767-3 0  9993",
        "tle_line2": "2 43259  98.0819  35.6322 0001304 255.3503 104.7561 14.76449850413877"
      },
      "geometry": {
        "type": "Point",
        "coordinates": [
          -149.55043372464664,
          -33.97258938837262
        ]
      }
    }
  ]
}